{"fetched_at":"2026-07-12T07:15:20.031Z","source":"https://celestrak.org/NORAD/elements/gp.php?GROUP=oneweb&FORMAT=JSON","constellation":"oneweb","records":[{"OBJECT_NAME":"ONEWEB-0033","OBJECT_ID":"2020-008M","EPOCH":"2026-07-11T22:40:38.890848","CLASSIFICATION_TYPE":"U","MEAN_MOTION":13.10368771,"ECCENTRICITY":0.00021632,"INCLINATION":87.8813,"RA_OF_ASC_NODE":31.3426,"ARG_OF_PERICENTER":96.9438,"MEAN_ANOMALY":263.1935,"EPHEMERIS_TYPE":0,"NORAD_CAT_ID":45142,"ELEMENT_SET_NO":999,"REV_AT_EPOCH":31145,"BSTAR":0.000094423263,"MEAN_MOTION_DOT":4.6e-7,"MEAN_MOTION_DDOT":0},{"OBJECT_NAME":"ONEWEB-0035","OBJECT_ID":"2020-008N","EPOCH":"2026-07-11T14:00:24.404256","CLASSIFICATION_TYPE":"U","MEAN_MOTION":13.10377752,"ECCENTRICITY":0.00018453,"INCLINATION":87.8814,"RA_OF_ASC_NODE":31.4081,"ARG_OF_PERICENTER":90.0704,"MEAN_ANOMALY":270.0635,"EPHEMERIS_TYPE":0,"NORAD_CAT_ID":45143,"ELEMENT_SET_NO":999,"REV_AT_EPOCH":31113,"BSTAR":-0.0017256136,"MEAN_MOTION_DOT":-0.0000059,"MEAN_MOTION_DDOT":0},{"OBJECT_NAME":"ONEWEB-0036","OBJECT_ID":"2020-008P","EPOCH":"2026-07-11T22:38:03.218784","CLASSIFICATION_TYPE":"U","MEAN_MOTION":13.10368877,"ECCENTRICITY":0.0001698,"INCLINATION":87.8827,"RA_OF_ASC_NODE":31.3536,"ARG_OF_PERICENTER":85.271,"MEAN_ANOMALY":274.8611,"EPHEMERIS_TYPE":0,"NORAD_CAT_ID":45144,"ELEMENT_SET_NO":999,"REV_AT_EPOCH":31160,"BSTAR":0.001332341,"MEAN_MOTION_DOT":0.00000478,"MEAN_MOTION_DDOT":0},{"OBJECT_NAME":"ONEWEB-0038","OBJECT_ID":"2020-008Q","EPOCH":"2026-07-11T12:10:52.707936","CLASSIFICATION_TYPE":"U","MEAN_MOTION":13.11415639,"ECCENTRICITY":0.0001708,"INCLINATION":87.8876,"RA_OF_ASC_NODE":16.2363,"ARG_OF_PERICENTER":148.4619,"MEAN_ANOMALY":211.6611,"EPHEMERIS_TYPE":0,"NORAD_CAT_ID":45145,"ELEMENT_SET_NO":999,"REV_AT_EPOCH":31351,"BSTAR":0.0013328835,"MEAN_MOTION_DOT":0.00000485,"MEAN_MOTION_DDOT":0},{"OBJECT_NAME":"ONEWEB-0039","OBJECT_ID":"2020-008R","EPOCH":"2026-07-11T13:35:45.711456","CLASSIFICATION_TYPE":"U","MEAN_MOTION":13.10371447,"ECCENTRICITY":0.00012911,"INCLINATION":87.8814,"RA_OF_ASC_NODE":31.4089,"ARG_OF_PERICENTER":74.749,"MEAN_ANOMALY":285.378,"EPHEMERIS_TYPE":0,"NORAD_CAT_ID":45146,"ELEMENT_SET_NO":999,"REV_AT_EPOCH":31135,"BSTAR":-0.00031390084,"MEAN_MOTION_DOT":-9.7e-7,"MEAN_MOTION_DDOT":0},{"OBJECT_NAME":"ONEWEB-0040","OBJECT_ID":"2020-008S","EPOCH":"2026-07-11T22:35:45.418560","CLASSIFICATION_TYPE":"U","MEAN_MOTION":13.10368859,"ECCENTRICITY":0.00018982,"INCLINATION":87.8811,"RA_OF_ASC_NODE":31.3447,"ARG_OF_PERICENTER":77.2623,"MEAN_ANOMALY":282.8717,"EPHEMERIS_TYPE":0,"NORAD_CAT_ID":45147,"ELEMENT_SET_NO":999,"REV_AT_EPOCH":31110,"BSTAR":0.0006717602,"MEAN_MOTION_DOT":0.00000247,"MEAN_MOTION_DDOT":0},{"OBJECT_NAME":"ONEWEB-0043","OBJECT_ID":"2020-008U","EPOCH":"2026-07-11T22:38:24.942336","CLASSIFICATION_TYPE":"U","MEAN_MOTION":13.10371839,"ECCENTRICITY":0.00013493,"INCLINATION":87.8819,"RA_OF_ASC_NODE":31.3334,"ARG_OF_PERICENTER":78.2823,"MEAN_ANOMALY":281.8456,"EPHEMERIS_TYPE":0,"NORAD_CAT_ID":45149,"ELEMENT_SET_NO":999,"REV_AT_EPOCH":31142,"BSTAR":0.00030003618,"MEAN_MOTION_DOT":0.00000117,"MEAN_MOTION_DDOT":0},{"OBJECT_NAME":"ONEWEB-0044","OBJECT_ID":"2020-008V","EPOCH":"2026-07-11T14:09:59.464512","CLASSIFICATION_TYPE":"U","MEAN_MOTION":13.10377348,"ECCENTRICITY":0.00017837,"INCLINATION":87.8828,"RA_OF_ASC_NODE":31.4058,"ARG_OF_PERICENTER":81.8491,"MEAN_ANOMALY":278.2839,"EPHEMERIS_TYPE":0,"NORAD_CAT_ID":45150,"ELEMENT_SET_NO":999,"REV_AT_EPOCH":31167,"BSTAR":-0.0011181773,"MEAN_MOTION_DOT":-0.00000378,"MEAN_MOTION_DDOT":0},{"OBJECT_NAME":"ONEWEB-0045","OBJECT_ID":"2020-008W","EPOCH":"2026-07-11T13:53:13.392672","CLASSIFICATION_TYPE":"U","MEAN_MOTION":13.11416321,"ECCENTRICITY":0.00017422,"INCLINATION":87.8884,"RA_OF_ASC_NODE":16.2033,"ARG_OF_PERICENTER":93.8865,"MEAN_ANOMALY":266.2462,"EPHEMERIS_TYPE":0,"NORAD_CAT_ID":45151,"ELEMENT_SET_NO":999,"REV_AT_EPOCH":31360,"BSTAR":0.0016488569,"MEAN_MOTION_DOT":0.00000597,"MEAN_MOTION_DDOT":0},{"OBJECT_NAME":"ONEWEB-0047","OBJECT_ID":"2020-008X","EPOCH":"2026-07-11T13:59:58.809120","CLASSIFICATION_TYPE":"U","MEAN_MOTION":13.10372508,"ECCENTRICITY":0.00018504,"INCLINATION":87.8825,"RA_OF_ASC_NODE":31.4063,"ARG_OF_PERICENTER":94.1004,"MEAN_ANOMALY":266.0335,"EPHEMERIS_TYPE":0,"NORAD_CAT_ID":45152,"ELEMENT_SET_NO":999,"REV_AT_EPOCH":31139,"BSTAR":-0.0017786614,"MEAN_MOTION_DOT":-0.00000608,"MEAN_MOTION_DDOT":0},{"OBJECT_NAME":"ONEWEB-0048","OBJECT_ID":"2020-008Y","EPOCH":"2026-07-11T13:52:52.392288","CLASSIFICATION_TYPE":"U","MEAN_MOTION":13.10372056,"ECCENTRICITY":0.00016837,"INCLINATION":87.8812,"RA_OF_ASC_NODE":31.4257,"ARG_OF_PERICENTER":91.119,"MEAN_ANOMALY":269.0131,"EPHEMERIS_TYPE":0,"NORAD_CAT_ID":45153,"ELEMENT_SET_NO":999,"REV_AT_EPOCH":31100,"BSTAR":-0.0015780867,"MEAN_MOTION_DOT":-0.00000538,"MEAN_MOTION_DDOT":0},{"OBJECT_NAME":"ONEWEB-0049","OBJECT_ID":"2020-008Z","EPOCH":"2026-07-11T13:57:31.624128","CLASSIFICATION_TYPE":"U","MEAN_MOTION":13.10372246,"ECCENTRICITY":0.00019664,"INCLINATION":87.8815,"RA_OF_ASC_NODE":31.4147,"ARG_OF_PERICENTER":75.3215,"MEAN_ANOMALY":284.813,"EPHEMERIS_TYPE":0,"NORAD_CAT_ID":45154,"ELEMENT_SET_NO":999,"REV_AT_EPOCH":31122,"BSTAR":-0.0017351751,"MEAN_MOTION_DOT":-0.00000593,"MEAN_MOTION_DDOT":0},{"OBJECT_NAME":"ONEWEB-0051","OBJECT_ID":"2020-008AA","EPOCH":"2026-07-11T12:00:55.175904","CLASSIFICATION_TYPE":"U","MEAN_MOTION":13.11417747,"ECCENTRICITY":0.00018395,"INCLINATION":87.8882,"RA_OF_ASC_NODE":16.2256,"ARG_OF_PERICENTER":88.8617,"MEAN_ANOMALY":271.2722,"EPHEMERIS_TYPE":0,"NORAD_CAT_ID":45155,"ELEMENT_SET_NO":999,"REV_AT_EPOCH":31427,"BSTAR":0.0016940708,"MEAN_MOTION_DOT":0.00000613,"MEAN_MOTION_DDOT":0},{"OBJECT_NAME":"ONEWEB-0052","OBJECT_ID":"2020-008AB","EPOCH":"2026-07-11T14:27:18.589536","CLASSIFICATION_TYPE":"U","MEAN_MOTION":13.1037775,"ECCENTRICITY":0.00018576,"INCLINATION":87.8825,"RA_OF_ASC_NODE":31.398,"ARG_OF_PERICENTER":73.9939,"MEAN_ANOMALY":286.1393,"EPHEMERIS_TYPE":0,"NORAD_CAT_ID":45156,"ELEMENT_SET_NO":999,"REV_AT_EPOCH":31113,"BSTAR":0.00046653412,"MEAN_MOTION_DOT":0.00000176,"MEAN_MOTION_DDOT":0},{"OBJECT_NAME":"ONEWEB-0053","OBJECT_ID":"2020-008AC","EPOCH":"2026-07-11T13:23:32.728416","CLASSIFICATION_TYPE":"U","MEAN_MOTION":13.10369256,"ECCENTRICITY":0.00015546,"INCLINATION":87.8812,"RA_OF_ASC_NODE":31.4266,"ARG_OF_PERICENTER":73.5914,"MEAN_ANOMALY":286.5384,"EPHEMERIS_TYPE":0,"NORAD_CAT_ID":45157,"ELEMENT_SET_NO":999,"REV_AT_EPOCH":31110,"BSTAR":0.00071611051,"MEAN_MOTION_DOT":0.00000263,"MEAN_MOTION_DDOT":0},{"OBJECT_NAME":"ONEWEB-0054","OBJECT_ID":"2020-008AD","EPOCH":"2026-07-11T14:14:52.580832","CLASSIFICATION_TYPE":"U","MEAN_MOTION":13.10377134,"ECCENTRICITY":0.00017488,"INCLINATION":87.8823,"RA_OF_ASC_NODE":31.4046,"ARG_OF_PERICENTER":86.8068,"MEAN_ANOMALY":273.326,"EPHEMERIS_TYPE":0,"NORAD_CAT_ID":45158,"ELEMENT_SET_NO":999,"REV_AT_EPOCH":31122,"BSTAR":-0.0014625618,"MEAN_MOTION_DOT":-0.00000498,"MEAN_MOTION_DDOT":0}]}
